#aV2013 10  6  0  0  0.00000000     288 DD+AD WGS84 FIT  NGA
## 1761      0.00000000   300.00000000 56571 0.0000000000000
+   31     1  2  3  4  5  6  7  8  9 10 11 12 13 14 15 16 17
+         18 19 20 21 22 23 24 25 26 27 28 29 31 32  0  0  0
+          0  0  0  0  0  0  0  0  0  0  0  0  0  0  0  0  0
+          0  0  0  0  0  0  0  0  0  0  0  0  0  0  0  0  0
+          0  0  0  0  0  0  0  0  0  0  0  0  0  0  0  0  0
++         2  2  2  2  2  2  2  2  2  2  2  2  2  2  2  2  2
++         2  2  2  2  2  2  2  2  2  2  2  2  2  2  2  0  0
++         0  0  0  0  0  0  0  0  0  0  0  0  0  0  0  0  0
++         0  0  0  0  0  0  0  0  0  0  0  0  0  0  0  0  0
++         0  0  0  0  0  0  0  0  0  0  0  0  0  0  0  0  0
%c cc cc ccc ccc cccc cccc cccc cccc ccccc ccccc ccccc ccccc
%c cc cc ccc ccc cccc cccc cccc cccc ccccc ccccc ccccc ccccc
%f  0.0000000  0.000000000  0.00000000000  0.000000000000000
%f  0.0000000  0.000000000  0.00000000000  0.000000000000000
%i    0    0    0    0      0      0      0      0         0
%i    0    0    0    0      0      0      0      0         0
/*      NGA, ST. LOUIS,MO.                                  
/*   EPHEMERIS COMPUTED FROM  1 DAYS OF DATA
/*   EPOCHA SMOOTHER  
/* CCCCCCCCCCCCCCCCCCCCCCCCCCCCCCCCCCCCCCCCCCCCCCCCCCCCCCCCC
*  2013 10  6  0 35  0.00000000                                                 
P  1 -12238.924232  22227.285340  -7691.522939     82.021996                    
V  1  -8466.054141   5561.324399  29764.037765      0.038135                    
P  2  20530.295802  -9759.920965 -13079.967945    454.568260                    
V  2  -8546.971236  15302.986832 -24908.802676      0.017653                    
P  3 -13910.786942   6857.734599  21028.268698    268.816021                    
V  3 -12983.796506 -24880.347987   -281.937597      0.052017                    
P  4  17094.254137   3101.717554 -20452.717471      1.653731                    
V  4 -15749.152569  19855.484779 -10041.144500      0.004942                    
P  5  24258.302880  -3088.196221  10524.777082   -399.264412                    
V  5  12644.448564   5134.674530 -27403.345250      0.002968                    
P  6 -16766.445190   -995.450745  20707.273879     88.185166                    
V  6  -9472.122068 -24388.522903  -8486.030711      0.185539                    
P  7    787.365028  18398.787223  19075.768395    266.317455                    
V  7 -17214.926334  17016.801645 -16066.086736      0.042232                    
P  8  10235.697632  10227.555878  22409.712566      8.899760                    
V  8 -20841.363896  18741.029691    380.106752      0.002185                    
P  9  10617.748975   9842.291492  21737.269531    273.449762                    
V  9 -18952.155415  21725.071650   -690.093964      0.027365                    
P 10  24364.273762   9549.314387  -6023.552522    -97.029914                    
V 10  -7613.250195   1308.725544 -29861.992006     -0.014520                    
P 11 -12194.808278  23276.773624   2341.254151   -426.059028                    
V 11  -3393.537641  -5376.275442  30045.380593     -0.034117                    
P 12  10074.766956 -12201.402353 -21342.135635    160.395103                    
V 12  26141.514336   6623.109632   8770.880374      0.022071                    
P 13   4707.040983  25992.337347  -2018.527061     72.995112                    
V 13  -2811.617123  -1815.909977 -32128.039771     -0.038307                    
P 14 -14609.726970 -16829.558614 -14341.802228    214.088559                    
V 14  -3011.361072 -18350.278713  24089.074107     -0.009481                    
P 15   6632.158342 -18643.876699  17558.462677   -140.531572                    
V 15  10065.166511  20269.773245  17956.630042     -0.019006                    
P 16 -24352.507808   1379.159969  10885.754849   -245.178312                    
V 16 -12950.842387  -4763.351091 -27963.341005      0.008748                    
P 17  14782.968310  17771.261552 -13066.934002    -28.205909                    
V 17   2924.942973  16726.597688  25381.739027     -0.036926                    
P 18 -12361.242251 -15962.819146  17845.226979    277.799412                    
V 18  21784.071693   2232.886591  17163.862143      0.020295                    
P 19  -9980.102919  15142.674937  19136.488083   -409.269094                    
V 19  -7390.547882 -23604.360233  15149.527400     -0.027575                    
P 20  -4793.078648  15419.888495 -21261.376756    127.288528                    
V 20 -26428.696062  -3973.044408   3179.940996      0.026988                    
P 21  -5075.621457 -17053.790088  20167.973639   -322.147718                    
V 21  17176.726084 -17647.514036 -11428.897551     -0.018512                    
P 22 -22399.527738 -11302.399461   9136.093847    188.243475                    
V 22  11781.801415  -1209.003702  27861.357713      0.016967                    
P 23  -1140.946950  23424.965611 -11974.824614     41.859782                    
V 23  -7610.493053 -13817.592653 -26501.848326     -0.034521                    
P 24  14974.313448 -21589.555027  -3691.855273    -15.006940                    
V 24   5250.849979  -1689.324450  31273.306956     -0.007105                    
P 25  -4943.835072 -15484.333449 -21084.317022    154.567128                    
V 25  26236.256038   4265.740620  -9214.258291      0.038212                    
P 26  13912.001843  -4352.479791  21555.125015    224.241587                    
V 26   7054.877863  28016.525692   1378.465628      0.188654                    
P 27 -14953.691811   3203.754181  21704.414021    -44.615272                    
V 27  -8923.961790 -26104.973683  -2280.853539     -0.042731                    
P 28  19621.592680  13540.311435  12476.850136    298.243731                    
V 28 -14702.694002  -2273.278244  26705.362568      0.030070                    
P 29  -3623.616353 -25762.149361  -5405.616759    476.436552                    
V 29   4358.570659   5919.232478 -30872.164355      0.032140                    
P 31 -17356.289126   -907.218020 -19999.020819    327.313839                    
V 31  16705.188295 -19460.779158 -13224.081801      0.007647                    
P 32 -15467.770166   9744.988283 -18968.451506   -543.071191                    
V 32 -23108.816631  -8425.317711  14967.904433      0.033550                    
EOF
